[{"OBJECT_NAME":"YAOGAN-43 01F","OBJECT_ID":"2024-148F","EPOCH":"2026-03-10T00:23:08.877408","MEAN_MOTION":15.29824616,"ECCENTRICITY":0.00057048,"INCLINATION":34.9925,"RA_OF_ASC_NODE":59.8891,"ARG_OF_PERICENTER":18.4862,"MEAN_ANOMALY":341.6062,"EPHEMERIS_TYPE":0,"CLASSIFICATION_TYPE":"U","NORAD_CAT_ID":60463,"ELEMENT_SET_NO":999,"REV_AT_EPOCH":8707,"BSTAR":0.00058388219,"MEAN_MOTION_DOT":0.00017308,"MEAN_MOTION_DDOT":0},{"OBJECT_NAME":"STARLINK-34565","OBJECT_ID":"2025-139Y","EPOCH":"2026-03-09T10:27:45.400896","MEAN_MOTION":15.30195875,"ECCENTRICITY":0.00013539,"INCLINATION":53.1585,"RA_OF_ASC_NODE":128.3264,"ARG_OF_PERICENTER":87.3741,"MEAN_ANOMALY":272.7415,"EPHEMERIS_TYPE":0,"CLASSIFICATION_TYPE":"U","NORAD_CAT_ID":64686,"ELEMENT_SET_NO":999,"REV_AT_EPOCH":4024,"BSTAR":0.00069964275,"MEAN_MOTION_DOT":0.00020417,"MEAN_MOTION_DDOT":0}]
